[
    {
        "CCSDS_OMM_VERS": "3.0",
        "COMMENT": "GENERATED VIA SPACE-TRACK.ORG API",
        "CREATION_DATE": "2025-05-03T17:28:03",
        "ORIGINATOR": "18 SPCS",
        "OBJECT_NAME": "GALILEO 8 (264)",
        "OBJECT_ID": "2015-017B",
        "CENTER_NAME": "EARTH",
        "REF_FRAME": "TEME",
        "TIME_SYSTEM": "UTC",
        "MEAN_ELEMENT_THEORY": "SGP4",
        "EPOCH": "2025-05-02T20:37:10.610976",
        "MEAN_MOTION": "1.70475531",
        "ECCENTRICITY": "0.00017820",
        "INCLINATION": "56.9017",
        "RA_OF_ASC_NODE": "352.7902",
        "ARG_OF_PERICENTER": "279.6754",
        "MEAN_ANOMALY": "80.3434",
        "EPHEMERIS_TYPE": "0",
        "CLASSIFICATION_TYPE": "U",
        "NORAD_CAT_ID": "40545",
        "ELEMENT_SET_NO": "999",
        "REV_AT_EPOCH": "2525",
        "BSTAR": "0.00000000000000",
        "MEAN_MOTION_DOT": "-0.00000100",
        "MEAN_MOTION_DDOT": "0.0000000000000",
        "SEMIMAJOR_AXIS": "29600.143",
        "PERIOD": "844.696",
        "APOAPSIS": "23227.283",
        "PERIAPSIS": "23216.733",
        "OBJECT_TYPE": "PAYLOAD",
        "RCS_SIZE": "LARGE",
        "COUNTRY_CODE": "ESA",
        "LAUNCH_DATE": "2015-03-27",
        "SITE": "FRGUI",
        "DECAY_DATE": null,
        "FILE": "4717971",
        "GP_ID": "286760119",
        "TLE_LINE0": "0 GALILEO 8 (264)",
        "TLE_LINE1": "1 40545U 15017B   25122.85915059 -.00000100  00000-0  00000-0 0  9998",
        "TLE_LINE2": "2 40545  56.9017 352.7902 0001782 279.6754  80.3434  1.70475531 25253"
    }
]